GLOBALSTAR M069         
1 31573U 07020C   26183.57587293 -.00000076  00000+0  14985-3 0  9997
2 31573  52.0000 208.5705 0001974 182.2432 352.7086 12.23471716880683
GLOBALSTAR M072         
1 31574U 07020D   26183.64444841 -.00000064  00000+0  27745-3 0  9992
2 31574  51.9940  59.0944 0001574   9.1170  16.5320 11.91658518876829
GLOBALSTAR M066         
1 32265U 07048C   26182.85028515 -.00000097  00000+0 -20180-4 0  9992
2 32265  51.9600  15.8193 0005663  74.3636 298.7841 12.30387687862030
GLOBALSTAR M079         
1 37188U 10054A   26183.44297326 -.00000081  00000+0  12812-3 0  9990
2 37188  52.0045  62.2295 0001015  55.7952 115.3468 12.62266386724475
GLOBALSTAR M074         
1 37189U 10054B   26182.97923146 -.00000088  00000+0  88318-4 0  9996
2 37189  52.0027  62.9039 0000788  72.7752  30.2078 12.62261827725021
GLOBALSTAR M076         
1 37190U 10054C   26183.62003369 -.00000080  00000+0  13433-3 0  9994
2 37190  52.0035  61.1577 0001012  69.9042 306.2914 12.62262023724822
GLOBALSTAR M077         
1 37191U 10054D   26183.20018662 -.00000091  00000+0 -24437-3 0  9990
2 37191  51.9934 141.1895 0002488 200.3537 262.9549 11.67547924722896
GLOBALSTAR M075         
1 37192U 10054E   26183.50891707 -.00000087  00000+0  93739-4 0  9999
2 37192  51.9946 103.5416 0000516  42.3972 128.8629 12.62267535723879
GLOBALSTAR M073         
1 37193U 10054F   26183.55847616 -.00000095  00000+0  49987-4 0  9990
2 37193  52.0076  17.5030 0001104  77.1295 317.8468 12.62266789725873
GLOBALSTAR M083         
1 37739U 11033A   26183.12619302 -.00000083  00000+0  11846-3 0  9995
2 37739  51.9877 327.0271 0000942  89.8901  81.1260 12.62263779694833
GLOBALSTAR M088         
1 37740U 11033B   26183.57372196 -.00000079  00000+0  13612-3 0  9991
2 37740  52.0194 232.1306 0000334 149.0966  15.0862 12.62269222690434
GLOBALSTAR M091         
1 37741U 11033C   26183.50698383 -.00000109  00000+0 -30755-4 0  9997
2 37741  51.9966 195.2752 0000090 347.1846 174.3647 12.62264193691210
GLOBALSTAR M085         
1 37742U 11033D   26183.65416747 -.00000112  00000+0 -48345-4 0  9994
2 37742  52.0106 146.1314 0000479  11.2216 159.5277 12.62264195691743
GLOBALSTAR M081         
1 37743U 11033E   26183.17077411 -.00000116  00000+0 -68169-4 0  9993
2 37743  51.9937 150.0219 0000363  38.1848 334.6350 12.62265301691831
GLOBALSTAR M089         
1 37744U 11033F   26183.56182172 -.00000092  00000+0  65644-4 0  9995
2 37744  51.9927 102.9875 0000567  79.7522  91.9091 12.62267424692723
GLOBALSTAR M084         
1 38040U 11080A   26183.17902997 -.00000097  00000+0  38158-4 0  9994
2 38040  52.0026 331.6420 0001064 110.6016  60.6638 12.62267694670655
GLOBALSTAR M080         
1 38041U 11080B   26183.15043183 -.00000099  00000+0  24868-4 0  9991
2 38041  52.0079 333.4525 0000436  80.4474  90.8806 12.62265390670770
GLOBALSTAR M082         
1 38042U 11080C   26183.60617586 -.00000074  00000+0  16519-3 0  9992
2 38042  52.0080 287.5686 0000387 111.1912 261.8826 12.62263864671546
GLOBALSTAR M092         
1 38043U 11080D   26183.58481156 -.00000087  00000+0  93606-4 0  9999
2 38043  52.0100  18.0308 0000846  85.3600 309.7871 12.62267357669993
GLOBALSTAR M090         
1 38044U 11080E   26183.55354531 -.00000117  00000+0 -73109-4 0  9994
2 38044  52.0133 281.6897 0000523 105.7704 267.0066 12.62252561671654
GLOBALSTAR M086         
1 38045U 11080F   26183.57500916 -.00000060  00000+0  24662-3 0  9992
2 38045  51.9901 281.5285 0001679  92.7777 279.9613 12.62287514671605
GLOBALSTAR M097         
1 39072U 13005A   26183.44545749 -.00000107  00000+0 -15938-4 0  9991
2 39072  52.0013 196.8890 0000160  48.7193 311.3687 12.62271330618836
GLOBALSTAR M093         
1 39073U 13005B   26183.33945145 -.00000109  00000+0 -28192-4 0  9992
2 39073  52.0074 190.5634 0000332  33.1148 326.9740 12.62266209618774
GLOBALSTAR M094         
1 39074U 13005C   26183.49767750 -.00000098  00000+0  31315-4 0  9991
2 39074  51.9958 104.1832 0000773  37.5645 322.5275 12.62268463620406
GLOBALSTAR M096         
1 39075U 13005D   26183.59038039 -.00000120  00000+0 -90594-4 0  9995
2 39075  52.0050 152.7140 0000426  15.1031 344.9848 12.62265644619331
GLOBALSTAR M078         
1 39076U 13005E   26183.48428002 -.00000041  00000+0  35164-3 0  9999
2 39076  51.9855 237.0279 0000534 296.7741  63.3071 12.62260201617947
GLOBALSTAR M095         
1 39077U 13005F   26183.51098837 -.00000079  00000+0  13985-3 0  9991
2 39077  52.0062 234.5721 0000119   6.3253 353.7615 12.62263885617802
GLOBALSTAR M087         
1 52888U 22064A   26183.20742044 -.00000100  00000+0  19810-4 0  9992
2 52888  52.0011  16.7246 0000929  66.5498 293.5466 12.62269302193030
